{"type": "FeatureCollection", "features": [ {"type": "Feature", "properties": {"norad_id": 34546, "name": "COSMOS 2251 DEB", "group": "cosmos-2251-debris", "lat": -51.5411017701206, "lon": -131.0163097060338, "alt_km": 732.4516791479236, "timestamp": "2025-12-12T05:47:29.165917+00:00", "meta": {"OBJECT_NAME": "COSMOS 2251 DEB", "OBJECT_ID": "1993-036UG", "EPOCH": "2025-12-11T22:18:41.199264", "MEAN_MOTION": 14.45406779, "ECCENTRICITY": 0.00219209, "INCLINATION": 74.0311, "RA_OF_ASC_NODE": 250.6964, "ARG_OF_PERICENTER": 324.5056, "MEAN_ANOMALY": 160.0175, "EPHEMERIS_TYPE": 0, "CLASSIFICATION_TYPE": "U", "NORAD_CAT_ID": 34546, "ELEMENT_SET_NO": 999, "REV_AT_EPOCH": 88014, "BSTAR": 0.0010496879, "MEAN_MOTION_DOT": 3.679e-05, "MEAN_MOTION_DDOT": 0}, "tle": {"line1": "1 34546U 93036UG  25345.92964351  .00003679  00000+0  10497-2 0  9998", "line2": "2 34546  74.0311 250.6964 0021920 324.5056 160.0175 14.45406779880149"}}, "geometry": {"type": "Point", "coordinates": [-131.0163097060338, -51.5411017701206]}}, {"type": "Feature", "properties": {"norad_id": 34547, "name": "COSMOS 2251 DEB", "group": "cosmos-2251-debris", "lat": 73.47108275695729, "lon": 176.48288734936173, "alt_km": 647.3109739959518, "timestamp": "2025-12-12T05:47:29.165927+00:00", "meta": {"OBJECT_NAME": "COSMOS 2251 DEB", "OBJECT_ID": "1993-036UH", "EPOCH": "2025-12-11T14:43:32.841120", "MEAN_MOTION": 14.72298648, "ECCENTRICITY": 0.00175909, "INCLINATION": 74.0303, "RA_OF_ASC_NODE": 102.9163, "ARG_OF_PERICENTER": 182.0571, "MEAN_ANOMALY": 178.0532, "EPHEMERIS_TYPE": 0, "CLASSIFICATION_TYPE": "U", "NORAD_CAT_ID": 34547, "ELEMENT_SET_NO": 999, "REV_AT_EPOCH": 88505, "BSTAR": 0.003400892, "MEAN_MOTION_DOT": 0.00021587, "MEAN_MOTION_DDOT": 0}, "tle": {"line1": "1 34547U 93036UH  25345.61357455  .00021587  00000+0  34009-2 0  9999", "line2": "2 34547  74.0303 102.9163 0017590 182.0571 178.0532 14.72298648885053"}}, "geometry": {"type": "Point", "coordinates": [176.48288734936173, 73.47108275695729]}}, {"type": "Feature", "properties": {"norad_id": 34553, "name": "COSMOS 2251 DEB", "group": "cosmos-2251-debris", "lat": 8.357992795139017, "lon": -164.74804030553153, "alt_km": 704.08883223258, "timestamp": "2025-12-12T05:47:29.165937+00:00", "meta": {"OBJECT_NAME": "COSMOS 2251 DEB", "OBJECT_ID": "1993-036UP", "EPOCH": "2025-12-11T17:06:02.921184", "MEAN_MOTION": 14.57707101, "ECCENTRICITY": 0.00193719, "INCLINATION": 74.0247, "RA_OF_ASC_NODE": 193.8454, "ARG_OF_PERICENTER": 271.2686, "MEAN_ANOMALY": 203.5704, "EPHEMERIS_TYPE": 0, "CLASSIFICATION_TYPE": "U", "NORAD_CAT_ID": 34553, "ELEMENT_SET_NO": 999, "REV_AT_EPOCH": 88081, "BSTAR": 0.0015912729, "MEAN_MOTION_DOT": 7.262e-05, "MEAN_MOTION_DDOT": 0}, "tle": {"line1": "1 34553U 93036UP  25345.71253381  .00007262  00000+0  15913-2 0  9997", "line2": "2 34553  74.0247 193.8454 0019371 271.2686 203.5704 14.57707101880812"}}, "geometry": {"type": "Point", "coordinates": [-164.74804030553153, 8.357992795139017]}}, {"type": "Feature", "properties": {"norad_id": 34554, "name": "COSMOS 2251 DEB", "group": "cosmos-2251-debris", "lat": 28.51382446240281, "lon": 110.9642472742361, "alt_km": 777.5212164724908, "timestamp": "2025-12-12T05:47:29.165947+00:00", "meta": {"OBJECT_NAME": "COSMOS 2251 DEB", "OBJECT_ID": "1993-036UQ", "EPOCH": "2025-12-11T20:53:13.393824", "MEAN_MOTION": 14.37935968, "ECCENTRICITY": 0.00229503, "INCLINATION": 74.0386, "RA_OF_ASC_NODE": 300.592, "ARG_OF_PERICENTER": 3.1494, "MEAN_ANOMALY": 27.0274, "EPHEMERIS_TYPE": 0, "CLASSIFICATION_TYPE": "U", "NORAD_CAT_ID": 34554, "ELEMENT_SET_NO": 999, "REV_AT_EPOCH": 87743, "BSTAR": 0.00056324821, "MEAN_MOTION_DOT": 1.681e-05, "MEAN_MOTION_DDOT": 0}, "tle": {"line1": "1 34554U 93036UQ  25345.87029391  .00001681  00000+0  56325-3 0  9999", "line2": "2 34554  74.0386 300.5920 0022950   3.1494  27.0274 14.37935968877435"}}, "geometry": {"type": "Point", "coordinates": [110.9642472742361, 28.51382446240281]}}, {"type": "Feature", "properties": {"norad_id": 34556, "name": "COSMOS 2251 DEB", "group": "cosmos-2251-debris", "lat": -53.867547941985734, "lon": -31.047359316492738, "alt_km": 639.5487078242395, "timestamp": "2025-12-12T05:47:29.165957+00:00", "meta": {"OBJECT_NAME": "COSMOS 2251 DEB", "OBJECT_ID": "1993-036US", "EPOCH": "2025-12-11T15:46:46.515648", "MEAN_MOTION": 14.77747642, "ECCENTRICITY": 0.00078788, "INCLINATION": 74.0159, "RA_OF_ASC_NODE": 126.9824, "ARG_OF_PERICENTER": 187.1045, "MEAN_ANOMALY": 185.2844, "EPHEMERIS_TYPE": 0, "CLASSIFICATION_TYPE": "U", "NORAD_CAT_ID": 34556, "ELEMENT_SET_NO": 999, "REV_AT_EPOCH": 88313, "BSTAR": 0.0034463135, "MEAN_MOTION_DOT": 0.00024795, "MEAN_MOTION_DDOT": 0}, "tle": {"line1": "1 34556U 93036US  25345.65748282  .00024795  00000+0  34463-2 0  9993", "line2": "2 34556  74.0159 126.9824 0007878 187.1045 185.2844 14.77747642883133"}}, "geometry": {"type": "Point", "coordinates": [-31.047359316492738, -53.867547941985734]}}, {"type": "Feature", "properties": {"norad_id": 34560, "name": "COSMOS 2251 DEB", "group": "cosmos-2251-debris", "lat": 37.6480683622098, "lon": -49.67088629840908, "alt_km": 650.1391379601837, "timestamp": "2025-12-12T05:47:29.165968+00:00", "meta": {"OBJECT_NAME": "COSMOS 2251 DEB", "OBJECT_ID": "1993-036UW", "EPOCH": "2025-12-11T19:56:42.891936", "MEAN_MOTION": 14.72099094, "ECCENTRICITY": 0.00146847, "INCLINATION": 74.0167, "RA_OF_ASC_NODE": 143.9021, "ARG_OF_PERICENTER": 225.3472, "MEAN_ANOMALY": 261.9903, "EPHEMERIS_TYPE": 0, "CLASSIFICATION_TYPE": "U", "NORAD_CAT_ID": 34560, "ELEMENT_SET_NO": 999, "REV_AT_EPOCH": 88238, "BSTAR": 0.0034589559, "MEAN_MOTION_DOT": 0.0002184, "MEAN_MOTION_DDOT": 0}, "tle": {"line1": "1 34560U 93036UW  25345.83105199  .00021840  00000+0  34590-2 0  9991", "line2": "2 34560  74.0167 143.9021 0014684 225.3472 261.9903 14.72099094882387"}}, "geometry": {"type": "Point", "coordinates": [-49.67088629840908, 37.6480683622098]}}, {"type": "Feature", "properties": {"norad_id": 34563, "name": "COSMOS 2251 DEB", "group": "cosmos-2251-debris", "lat": -45.98234521032266, "lon": -172.5908351930197, "alt_km": 733.866723006754, "timestamp": "2025-12-12T05:47:29.165978+00:00", "meta": {"OBJECT_NAME": "COSMOS 2251 DEB", "OBJECT_ID": "1993-036UZ", "EPOCH": "2025-12-11T09:17:04.026624", "MEAN_MOTION": 14.46504175, "ECCENTRICITY": 0.00138862, "INCLINATION": 74.0376, "RA_OF_ASC_NODE": 206.2339, "ARG_OF_PERICENTER": 300.1234, "MEAN_ANOMALY": 243.7896, "EPHEMERIS_TYPE": 0, "CLASSIFICATION_TYPE": "U", "NORAD_CAT_ID": 34563, "ELEMENT_SET_NO": 999, "REV_AT_EPOCH": 88177, "BSTAR": 0.00073390299, "MEAN_MOTION_DOT": 2.619e-05, "MEAN_MOTION_DDOT": 0}, "tle": {"line1": "1 34563U 93036UZ  25345.38685216  .00002619  00000+0  73390-3 0  9992", "line2": "2 34563  74.0376 206.2339 0013886 300.1234 243.7896 14.46504175881771"}}, "geometry": {"type": "Point", "coordinates": [-172.5908351930197, -45.98234521032266]}}, {"type": "Feature", "properties": {"norad_id": 34564, "name": "COSMOS 2251 DEB", "group": "cosmos-2251-debris", "lat": 70.61104367861626, "lon": 4.490411389420328, "alt_km": 755.4275055301296, "timestamp": "2025-12-12T05:47:29.165988+00:00", "meta": {"OBJECT_NAME": "COSMOS 2251 DEB", "OBJECT_ID": "1993-036VA", "EPOCH": "2025-12-11T21:34:16.547232", "MEAN_MOTION": 14.40687788, "ECCENTRICITY": 0.0018989, "INCLINATION": 74.0325, "RA_OF_ASC_NODE": 239.5674, "ARG_OF_PERICENTER": 343.6142, "MEAN_ANOMALY": 141.6161, "EPHEMERIS_TYPE": 0, "CLASSIFICATION_TYPE": "U", "NORAD_CAT_ID": 34564, "ELEMENT_SET_NO": 999, "REV_AT_EPOCH": 87994, "BSTAR": 0.00038854487, "MEAN_MOTION_DOT": 1.217e-05, "MEAN_MOTION_DDOT": 0}, "tle": {"line1": "1 34564U 93036VA  25345.89880263  .00001217  00000+0  38854-3 0  9997", "line2": "2 34564  74.0325 239.5674 0018989 343.6142 141.6161 14.40687788879949"}}, "geometry": {"type": "Point", "coordinates": [4.490411389420328, 70.61104367861626]}}, {"type": "Feature", "properties": {"norad_id": 34567, "name": "COSMOS 2251 DEB", "group": "cosmos-2251-debris", "lat": 3.615184450612543, "lon": -23.358732115089865, "alt_km": 783.6387257899587, "timestamp": "2025-12-12T05:47:29.165998+00:00", "meta": {"OBJECT_NAME": "COSMOS 2251 DEB", "OBJECT_ID": "1993-036VD", "EPOCH": "2025-12-11T22:48:25.333344", "MEAN_MOTION": 14.24015105, "ECCENTRICITY": 0.00744763, "INCLINATION": 74.0399, "RA_OF_ASC_NODE": 158.2009, "ARG_OF_PERICENTER": 232.644, "MEAN_ANOMALY": 252.8964, "EPHEMERIS_TYPE": 0, "CLASSIFICATION_TYPE": "U", "NORAD_CAT_ID": 34567, "ELEMENT_SET_NO": 999, "REV_AT_EPOCH": 87113, "BSTAR": 0.00033898928, "MEAN_MOTION_DOT": 7.75e-06, "MEAN_MOTION_DDOT": 0}, "tle": {"line1": "1 34567U 93036VD  25345.95029321  .00000775  00000+0  33899-3 0  9999", "line2": "2 34567  74.0399 158.2009 0074476 232.6440 252.8964 14.24015105871132"}}, "geometry": {"type": "Point", "coordinates": [-23.358732115089865, 3.615184450612543]}}, {"type": "Feature", "properties": {"norad_id": 34569, "name": "COSMOS 2251 DEB", "group": "cosmos-2251-debris", "lat": -18.87539080698258, "lon": -166.59552343617256, "alt_km": 736.1273794875806, "timestamp": "2025-12-12T05:47:29.166008+00:00", "meta": {"OBJECT_NAME": "COSMOS 2251 DEB", "OBJECT_ID": "1993-036VF", "EPOCH": "2025-12-11T14:51:14.626656", "MEAN_MOTION": 14.24748288, "ECCENTRICITY": 0.01572567, "INCLINATION": 73.9903, "RA_OF_ASC_NODE": 200.1629, "ARG_OF_PERICENTER": 28.8066, "MEAN_ANOMALY": 1.9109, "EPHEMERIS_TYPE": 0, "CLASSIFICATION_TYPE": "U", "NORAD_CAT_ID": 34569, "ELEMENT_SET_NO": 999, "REV_AT_EPOCH": 86952, "BSTAR": 0.00071468017, "MEAN_MOTION_DOT": 1.868e-05, "MEAN_MOTION_DDOT": 0}, "tle": {"line1": "1 34569U 93036VF  25345.61891929  .00001868  00000+0  71468-3 0  9993", "line2": "2 34569  73.9903 200.1629 0157256  28.8066   1.9109 14.24748288869524"}}, "geometry": {"type": "Point", "coordinates": [-166.59552343617256, -18.87539080698258]}}]}